{"type": "FeatureCollection", "features": [ {"type": "Feature", "properties": {"norad_id": 65590, "name": "COSMOS 2596 (708K)", "group": "gnss", "lat": -30.187656660410966, "lon": -54.73476404715261, "alt_km": 19100.210184137642, "timestamp": "2025-12-20T03:42:47.637266+00:00", "meta": {"OBJECT_NAME": "COSMOS 2596 (708K)", "OBJECT_ID": "2025-206B", "EPOCH": "2025-12-19T12:37:39.326304", "MEAN_MOTION": 2.13100498, "ECCENTRICITY": 0.0014057, "INCLINATION": 64.7407, "RA_OF_ASC_NODE": 321.239, "ARG_OF_PERICENTER": 306.9222, "MEAN_ANOMALY": 257.0198, "EPHEMERIS_TYPE": 0, "CLASSIFICATION_TYPE": "U", "NORAD_CAT_ID": 65590, "ELEMENT_SET_NO": 999, "REV_AT_EPOCH": 208, "BSTAR": 0, "MEAN_MOTION_DOT": -5.9e-07, "MEAN_MOTION_DDOT": 0}, "tle": {"line1": "1 65590U 25206B   25353.52614961 -.00000059  00000+0  00000+0 0  9995", "line2": "2 65590  64.7407 321.2390 0014057 306.9222 257.0198  2.13100498  2086"}}, "geometry": {"type": "Point", "coordinates": [-54.73476404715261, -30.187656660410966]}}, {"type": "Feature", "properties": {"norad_id": 67160, "name": "GALILEO A", "group": "gnss", "lat": 7.921302282142642, "lon": -78.56019407029994, "alt_km": 22933.63924395569, "timestamp": "2025-12-20T03:42:47.637279+00:00", "meta": {"OBJECT_NAME": "GALILEO A", "OBJECT_ID": "2025-302A", "EPOCH": "2025-12-18T03:30:19.484640", "MEAN_MOTION": 1.72906186, "ECCENTRICITY": 0.0008424, "INCLINATION": 54.2406, "RA_OF_ASC_NODE": 107.2544, "ARG_OF_PERICENTER": 237.6458, "MEAN_ANOMALY": 122.2316, "EPHEMERIS_TYPE": 0, "CLASSIFICATION_TYPE": "U", "NORAD_CAT_ID": 67160, "ELEMENT_SET_NO": 999, "REV_AT_EPOCH": 2, "BSTAR": 0, "MEAN_MOTION_DOT": -7e-08, "MEAN_MOTION_DDOT": 0}, "tle": {"line1": "1 67160U 25302A   25352.14605885 -.00000007  00000+0  00000+0 0  9992", "line2": "2 67160  54.2406 107.2544 0008424 237.6458 122.2316  1.72906186    28"}}, "geometry": {"type": "Point", "coordinates": [-78.56019407029994, 7.921302282142642]}}, {"type": "Feature", "properties": {"norad_id": 67161, "name": "GALILEO B", "group": "gnss", "lat": 7.3407744628884855, "lon": -78.16446649012099, "alt_km": 22934.37323021583, "timestamp": "2025-12-20T03:42:47.637291+00:00", "meta": {"OBJECT_NAME": "GALILEO B", "OBJECT_ID": "2025-302B", "EPOCH": "2025-12-19T07:14:53.290752", "MEAN_MOTION": 1.72972192, "ECCENTRICITY": 0.0004587, "INCLINATION": 54.2272, "RA_OF_ASC_NODE": 107.1916, "ARG_OF_PERICENTER": 255.0301, "MEAN_ANOMALY": 104.8802, "EPHEMERIS_TYPE": 0, "CLASSIFICATION_TYPE": "U", "NORAD_CAT_ID": 67161, "ELEMENT_SET_NO": 999, "REV_AT_EPOCH": 5, "BSTAR": 0, "MEAN_MOTION_DOT": -5e-08, "MEAN_MOTION_DDOT": 0}, "tle": {"line1": "1 67161U 25302B   25353.30200568 -.00000005  00000+0  00000+0 0  9999", "line2": "2 67161  54.2272 107.1916 0004587 255.0301 104.8802  1.72972192    58"}}, "geometry": {"type": "Point", "coordinates": [-78.16446649012099, 7.3407744628884855]}}]}